{
  "type": "FeatureCollection",
  "features": [
    {
      "type": "Feature",
      "properties": {
        "norad_id": 40069,
        "name": "METEOR-M 2",
        "group": "weather",
        "lat": -20.907102828094935,
        "lon": 149.15470446360953,
        "alt_km": 822.1440506566105,
        "timestamp": "2025-12-21T03:56:50.501171+00:00",
        "meta_object_name": "METEOR-M 2",
        "meta_object_id": "2014-037A",
        "meta_epoch": "2025-12-20T21:56:10.311936",
        "meta_mean_motion": 14.21389796,
        "meta_eccentricity": 0.0005426,
        "meta_inclination": 98.4903,
        "meta_ra_of_asc_node": 332.185,
        "meta_arg_of_pericenter": 183.8047,
        "meta_mean_anomaly": 176.309,
        "meta_ephemeris_type": 0,
        "meta_classification_type": "U",
        "meta_norad_cat_id": 40069,
        "meta_element_set_no": 999,
        "meta_rev_at_epoch": 59399,
        "meta_bstar": 8.2519e-05,
        "meta_mean_motion_dot": 1.38e-06,
        "meta_mean_motion_ddot": 0,
        "tle_line1": "1 40069U 14037A   25354.91400824  .00000138  00000+0  82519-4 0  9991",
        "tle_line2": "2 40069  98.4903 332.1850 0005426 183.8047 176.3090 14.21389796593995"
      },
      "geometry": {
        "type": "Point",
        "coordinates": [
          149.15470446360953,
          -20.907102828094935
        ]
      }
    },
    {
      "type": "Feature",
      "properties": {
        "norad_id": 40267,
        "name": "HIMAWARI-8",
        "group": "weather",
        "lat": -0.017757516670357788,
        "lon": -70.14493767270761,
        "alt_km": 35782.688239981646,
        "timestamp": "2025-12-21T03:56:50.501181+00:00",
        "meta_object_name": "HIMAWARI-8",
        "meta_object_id": "2014-060A",
        "meta_epoch": "2025-12-20T19:34:38.799840",
        "meta_mean_motion": 1.00270913,
        "meta_eccentricity": 8.74e-05,
        "meta_inclination": 0.0396,
        "meta_ra_of_asc_node": 137.9561,
        "meta_arg_of_pericenter": 157.6094,
        "meta_mean_anomaly": 228.4079,
        "meta_ephemeris_type": 0,
        "meta_classification_type": "U",
        "meta_norad_cat_id": 40267,
        "meta_element_set_no": 999,
        "meta_rev_at_epoch": 4097,
        "meta_bstar": 0,
        "meta_mean_motion_dot": -2.52e-06,
        "meta_mean_motion_ddot": 0,
        "tle_line1": "1 40267U 14060A   25354.81572685 -.00000252  00000+0  00000+0 0  9999",
        "tle_line2": "2 40267   0.0396 137.9561 0000874 157.6094 228.4079  1.00270913 40977"
      },
      "geometry": {
        "type": "Point",
        "coordinates": [
          -70.14493767270761,
          -0.017757516670357788
        ]
      }
    },
    {
      "type": "Feature",
      "properties": {
        "norad_id": 40367,
        "name": "FENGYUN 2G",
        "group": "weather",
        "lat": 0.5704404668031654,
        "lon": -111.53725445195991,
        "alt_km": 35779.16927129763,
        "timestamp": "2025-12-21T03:56:50.501192+00:00",
        "meta_object_name": "FENGYUN 2G",
        "meta_object_id": "2014-090A",
        "meta_epoch": "2025-12-20T18:50:19.796640",
        "meta_mean_motion": 1.00261225,
        "meta_eccentricity": 0.0002663,
        "meta_inclination": 5.1876,
        "meta_ra_of_asc_node": 75.0062,
        "meta_arg_of_pericenter": 202.69,
        "meta_mean_anomaly": 193.7687,
        "meta_ephemeris_type": 0,
        "meta_classification_type": "U",
        "meta_norad_cat_id": 40367,
        "meta_element_set_no": 999,
        "meta_rev_at_epoch": 4021,
        "meta_bstar": 0,
        "meta_mean_motion_dot": -2.79e-06,
        "meta_mean_motion_ddot": 0,
        "tle_line1": "1 40367U 14090A   25354.78495135 -.00000279  00000+0  00000+0 0  9992",
        "tle_line2": "2 40367   5.1876  75.0062 0002663 202.6900 193.7687  1.00261225 40212"
      },
      "geometry": {
        "type": "Point",
        "coordinates": [
          -111.53725445195991,
          0.5704404668031654
        ]
      }
    },
    {
      "type": "Feature",
      "properties": {
        "norad_id": 40732,
        "name": "METEOSAT-11 (MSG-4)",
        "group": "weather",
        "lat": 2.763623234115397,
        "lon": 158.3785743399335,
        "alt_km": 35784.01350327813,
        "timestamp": "2025-12-21T03:56:50.501202+00:00",
        "meta_object_name": "METEOSAT-11 (MSG-4)",
        "meta_object_id": "2015-034A",
        "meta_epoch": "2025-12-20T18:24:37.260288",
        "meta_mean_motion": 1.00270003,
        "meta_eccentricity": 8.2e-05,
        "meta_inclination": 2.7562,
        "meta_ra_of_asc_node": 71.9805,
        "meta_arg_of_pericenter": 136.9548,
        "meta_mean_anomaly": 166.015,
        "meta_ephemeris_type": 0,
        "meta_classification_type": "U",
        "meta_norad_cat_id": 40732,
        "meta_element_set_no": 999,
        "meta_rev_at_epoch": 542,
        "meta_bstar": 0,
        "meta_mean_motion_dot": 8.2e-07,
        "meta_mean_motion_ddot": 0,
        "tle_line1": "1 40732U 15034A   25354.76709792  .00000082  00000+0  00000+0 0  9993",
        "tle_line2": "2 40732   2.7562  71.9805 0000820 136.9548 166.0150  1.00270003  5429"
      },
      "geometry": {
        "type": "Point",
        "coordinates": [
          158.3785743399335,
          2.763623234115397
        ]
      }
    },
    {
      "type": "Feature",
      "properties": {
        "norad_id": 41105,
        "name": "ELEKTRO-L 2",
        "group": "weather",
        "lat": 5.532746592131233,
        "lon": 134.5574650268051,
        "alt_km": 35797.72356540096,
        "timestamp": "2025-12-21T03:56:50.501213+00:00",
        "meta_object_name": "ELEKTRO-L 2",
        "meta_object_id": "2015-074A",
        "meta_epoch": "2025-12-20T01:10:35.962176",
        "meta_mean_motion": 1.00272605,
        "meta_eccentricity": 0.00035244,
        "meta_inclination": 6.243,
        "meta_ra_of_asc_node": 72.7416,
        "meta_arg_of_pericenter": 209.3855,
        "meta_mean_anomaly": 169.9333,
        "meta_ephemeris_type": 0,
        "meta_classification_type": "U",
        "meta_norad_cat_id": 41105,
        "meta_element_set_no": 999,
        "meta_rev_at_epoch": 3671,
        "meta_bstar": 0,
        "meta_mean_motion_dot": -9.8e-07,
        "meta_mean_motion_ddot": 0,
        "tle_line1": "1 41105U 15074A   25354.04902734 -.00000098  00000+0  00000+0 0  9992",
        "tle_line2": "2 41105   6.2430  72.7416 0003524 209.3855 169.9333  1.00272605 36715"
      },
      "geometry": {
        "type": "Point",
        "coordinates": [
          134.5574650268051,
          5.532746592131233
        ]
      }
    },
    {
      "type": "Feature",
      "properties": {
        "norad_id": 41752,
        "name": "INSAT-3DR",
        "group": "weather",
        "lat": 0.05679518960937062,
        "lon": -136.943353752546,
        "alt_km": 35746.39222885847,
        "timestamp": "2025-12-21T03:56:50.501224+00:00",
        "meta_object_name": "INSAT-3DR",
        "meta_object_id": "2016-054A",
        "meta_epoch": "2025-12-20T19:39:26.263872",
        "meta_mean_motion": 1.00271584,
        "meta_eccentricity": 0.0014139,
        "meta_inclination": 0.1114,
        "meta_ra_of_asc_node": 86.3227,
        "meta_arg_of_pericenter": 185.2766,
        "meta_mean_anomaly": 186.8966,
        "meta_ephemeris_type": 0,
        "meta_classification_type": "U",
        "meta_norad_cat_id": 41752,
        "meta_element_set_no": 999,
        "meta_rev_at_epoch": 3403,
        "meta_bstar": 0,
        "meta_mean_motion_dot": -5.4e-07,
        "meta_mean_motion_ddot": 0,
        "tle_line1": "1 41752U 16054A   25354.81905398 -.00000054  00000+0  00000+0 0  9995",
        "tle_line2": "2 41752   0.1114  86.3227 0014139 185.2766 186.8966  1.00271584 34031"
      },
      "geometry": {
        "type": "Point",
        "coordinates": [
          -136.943353752546,
          0.05679518960937062
        ]
      }
    },
    {
      "type": "Feature",
      "properties": {
        "norad_id": 41836,
        "name": "HIMAWARI-9",
        "group": "weather",
        "lat": -0.04277092814053204,
        "lon": -70.05795928476061,
        "alt_km": 35780.77494134632,
        "timestamp": "2025-12-21T03:56:50.501234+00:00",
        "meta_object_name": "HIMAWARI-9",
        "meta_object_id": "2016-064A",
        "meta_epoch": "2025-12-20T19:34:38.799840",
        "meta_mean_motion": 1.00274017,
        "meta_eccentricity": 0.0001447,
        "meta_inclination": 0.0173,
        "meta_ra_of_asc_node": 6.6921,
        "meta_arg_of_pericenter": 322.5388,
        "meta_mean_anomaly": 194.8351,
        "meta_ephemeris_type": 0,
        "meta_classification_type": "U",
        "meta_norad_cat_id": 41836,
        "meta_element_set_no": 999,
        "meta_rev_at_epoch": 3342,
        "meta_bstar": 0,
        "meta_mean_motion_dot": 0,
        "meta_mean_motion_ddot": 0,
        "tle_line1": "1 41836U 16064A   25354.81572685  .00000000  00000+0  00000+0 0  9998",
        "tle_line2": "2 41836   0.0173   6.6921 0001447 322.5388 194.8351  1.00274017 33421"
      },
      "geometry": {
        "type": "Point",
        "coordinates": [
          -70.05795928476061,
          -0.04277092814053204
        ]
      }
    }
  ]
}